{
  "type": "FeatureCollection",
  "features": [
    {
      "type": "Feature",
      "properties": {
        "norad_id": 43260,
        "name": "GAOFEN-1 03",
        "group": "resource",
        "lat": 0.9237345180617108,
        "lon": -139.46542914010962,
        "alt_km": 645.0408372606598,
        "timestamp": "2025-12-08T17:43:04.551660+00:00",
        "meta_object_name": "GAOFEN-1 03",
        "meta_object_id": "2018-031B",
        "meta_epoch": "2025-12-08T07:09:02.540448",
        "meta_mean_motion": 14.76423522,
        "meta_eccentricity": 0.00022944,
        "meta_inclination": 98.0805,
        "meta_ra_of_asc_node": 39.9629,
        "meta_arg_of_pericenter": 341.0917,
        "meta_mean_anomaly": 19.0207,
        "meta_ephemeris_type": 0,
        "meta_classification_type": "U",
        "meta_norad_cat_id": 43260,
        "meta_element_set_no": 999,
        "meta_rev_at_epoch": 41452,
        "meta_bstar": 0.00027421217,
        "meta_mean_motion_dot": 1.855e-05,
        "meta_mean_motion_ddot": 0,
        "tle_line1": "1 43260U 18031B   25342.29794607  .00001855  00000+0  27421-3 0  9995",
        "tle_line2": "2 43260  98.0805  39.9629 0002294 341.0917  19.0207 14.76423522414528"
      },
      "geometry": {
        "type": "Point",
        "coordinates": [
          -139.46542914010962,
          0.9237345180617108
        ]
      }
    },
    {
      "type": "Feature",
      "properties": {
        "norad_id": 43262,
        "name": "GAOFEN-1 04",
        "group": "resource",
        "lat": -51.22660960901029,
        "lon": 50.76056288805759,
        "alt_km": 647.8129321582283,
        "timestamp": "2025-12-08T17:43:04.551671+00:00",
        "meta_object_name": "GAOFEN-1 04",
        "meta_object_id": "2018-031D",
        "meta_epoch": "2025-12-08T06:34:01.917120",
        "meta_mean_motion": 14.76436649,
        "meta_eccentricity": 0.00011651,
        "meta_inclination": 98.0814,
        "meta_ra_of_asc_node": 40.1073,
        "meta_arg_of_pericenter": 59.7911,
        "meta_mean_anomaly": 300.3414,
        "meta_ephemeris_type": 0,
        "meta_classification_type": "U",
        "meta_norad_cat_id": 43262,
        "meta_element_set_no": 999,
        "meta_rev_at_epoch": 41451,
        "meta_bstar": 0.00027556836,
        "meta_mean_motion_dot": 1.865e-05,
        "meta_mean_motion_ddot": 0,
        "tle_line1": "1 43262U 18031D   25342.27363330  .00001865  00000+0  27557-3 0  9991",
        "tle_line2": "2 43262  98.0814  40.1073 0001165  59.7911 300.3414 14.76436649414519"
      },
      "geometry": {
        "type": "Point",
        "coordinates": [
          50.76056288805759,
          -51.22660960901029
        ]
      }
    },
    {
      "type": "Feature",
      "properties": {
        "norad_id": 43437,
        "name": "SENTINEL-3B",
        "group": "resource",
        "lat": 68.5948423139172,
        "lon": -109.23354426066588,
        "alt_km": 794.8620332777346,
        "timestamp": "2025-12-08T17:43:04.551682+00:00",
        "meta_object_name": "SENTINEL-3B",
        "meta_object_id": "2018-039A",
        "meta_epoch": "2025-12-08T03:44:28.047552",
        "meta_mean_motion": 14.26740074,
        "meta_eccentricity": 0.00015241,
        "meta_inclination": 98.6271,
        "meta_ra_of_asc_node": 47.4066,
        "meta_arg_of_pericenter": 107.4401,
        "meta_mean_anomaly": 252.6946,
        "meta_ephemeris_type": 0,
        "meta_classification_type": "U",
        "meta_norad_cat_id": 43437,
        "meta_element_set_no": 999,
        "meta_rev_at_epoch": 39688,
        "meta_bstar": 0.00012292814,
        "meta_mean_motion_dot": 2.54e-06,
        "meta_mean_motion_ddot": 0,
        "tle_line1": "1 43437U 18039A   25342.15588018  .00000254  00000+0  12293-3 0  9994",
        "tle_line2": "2 43437  98.6271  47.4066 0001524 107.4401 252.6946 14.26740074396885"
      },
      "geometry": {
        "type": "Point",
        "coordinates": [
          -109.23354426066588,
          68.5948423139172
        ]
      }
    },
    {
      "type": "Feature",
      "properties": {
        "norad_id": 43461,
        "name": "GAOFEN-5 01",
        "group": "resource",
        "lat": -25.37955456747679,
        "lon": -50.32924826707115,
        "alt_km": 696.634837724122,
        "timestamp": "2025-12-08T17:43:04.551692+00:00",
        "meta_object_name": "GAOFEN-5 01",
        "meta_object_id": "2018-043A",
        "meta_epoch": "2025-12-07T22:06:10.768608",
        "meta_mean_motion": 14.60401449,
        "meta_eccentricity": 0.00012884,
        "meta_inclination": 98.4318,
        "meta_ra_of_asc_node": 304.8042,
        "meta_arg_of_pericenter": 357.5447,
        "meta_mean_anomaly": 2.5746,
        "meta_ephemeris_type": 0,
        "meta_classification_type": "U",
        "meta_norad_cat_id": 43461,
        "meta_element_set_no": 999,
        "meta_rev_at_epoch": 40377,
        "meta_bstar": 0.00018980945,
        "meta_mean_motion_dot": 8.7e-06,
        "meta_mean_motion_ddot": 0,
        "tle_line1": "1 43461U 18043A   25341.92095797  .00000870  00000+0  18981-3 0  9991",
        "tle_line2": "2 43461  98.4318 304.8042 0001288 357.5447   2.5746 14.60401449403776"
      },
      "geometry": {
        "type": "Point",
        "coordinates": [
          -50.32924826707115,
          -25.37955456747679
        ]
      }
    },
    {
      "type": "Feature",
      "properties": {
        "norad_id": 43484,
        "name": "GAOFEN-6",
        "group": "resource",
        "lat": 78.97450956433693,
        "lon": -88.1234385555985,
        "alt_km": 624.2457885733402,
        "timestamp": "2025-12-08T17:43:04.551703+00:00",
        "meta_object_name": "GAOFEN-6",
        "meta_object_id": "2018-048A",
        "meta_epoch": "2025-12-08T05:53:34.230912",
        "meta_mean_motion": 14.76554581,
        "meta_eccentricity": 0.00132847,
        "meta_inclination": 97.8037,
        "meta_ra_of_asc_node": 46.6632,
        "meta_arg_of_pericenter": 77.0577,
        "meta_mean_anomaly": 283.2116,
        "meta_ephemeris_type": 0,
        "meta_classification_type": "U",
        "meta_norad_cat_id": 43484,
        "meta_element_set_no": 999,
        "meta_rev_at_epoch": 40521,
        "meta_bstar": 0.00024330221,
        "meta_mean_motion_dot": 1.65e-05,
        "meta_mean_motion_ddot": 0,
        "tle_line1": "1 43484U 18048A   25342.24553508  .00001650  00000+0  24330-3 0  9998",
        "tle_line2": "2 43484  97.8037  46.6632 0013284  77.0577 283.2116 14.76554581405218"
      },
      "geometry": {
        "type": "Point",
        "coordinates": [
          -88.1234385555985,
          78.97450956433693
        ]
      }
    },
    {
      "type": "Feature",
      "properties": {
        "norad_id": 43585,
        "name": "GAOFEN-11 01",
        "group": "resource",
        "lat": -58.67789152499047,
        "lon": 57.62152648407081,
        "alt_km": 424.0158078347604,
        "timestamp": "2025-12-08T17:43:04.551713+00:00",
        "meta_object_name": "GAOFEN-11 01",
        "meta_object_id": "2018-063A",
        "meta_epoch": "2025-12-08T07:07:16.653792",
        "meta_mean_motion": 15.49031823,
        "meta_eccentricity": 0.00045828,
        "meta_inclination": 97.1561,
        "meta_ra_of_asc_node": 45.2686,
        "meta_arg_of_pericenter": 333.5475,
        "meta_mean_anomaly": 26.5542,
        "meta_ephemeris_type": 0,
        "meta_classification_type": "U",
        "meta_norad_cat_id": 43585,
        "meta_element_set_no": 999,
        "meta_rev_at_epoch": 41073,
        "meta_bstar": 0.00032671716,
        "meta_mean_motion_dot": 0.00017629,
        "meta_mean_motion_ddot": 0,
        "tle_line1": "1 43585U 18063A   25342.29672053  .00017629  00000+0  32672-3 0  9990",
        "tle_line2": "2 43585  97.1561  45.2686 0004582 333.5475  26.5542 15.49031823410731"
      },
      "geometry": {
        "type": "Point",
        "coordinates": [
          57.62152648407081,
          -58.67789152499047
        ]
      }
    },
    {
      "type": "Feature",
      "properties": {
        "norad_id": 43613,
        "name": "ICESAT-2",
        "group": "resource",
        "lat": -22.5731060460023,
        "lon": -119.50848567606057,
        "alt_km": 488.0525181846551,
        "timestamp": "2025-12-08T17:43:04.551724+00:00",
        "meta_object_name": "ICESAT-2",
        "meta_object_id": "2018-070A",
        "meta_epoch": "2025-12-08T06:48:57.028032",
        "meta_mean_motion": 15.28227166,
        "meta_eccentricity": 0.00020122,
        "meta_inclination": 92.0046,
        "meta_ra_of_asc_node": 239.5347,
        "meta_arg_of_pericenter": 159.8615,
        "meta_mean_anomaly": 200.2714,
        "meta_ephemeris_type": 0,
        "meta_classification_type": "U",
        "meta_norad_cat_id": 43613,
        "meta_element_set_no": 999,
        "meta_rev_at_epoch": 40330,
        "meta_bstar": 0.0005640814,
        "meta_mean_motion_dot": 0.00015519,
        "meta_mean_motion_ddot": 0,
        "tle_line1": "1 43613U 18070A   25342.28399338  .00015519  00000+0  56408-3 0  9990",
        "tle_line2": "2 43613  92.0046 239.5347 0002012 159.8615 200.2714 15.28227166403309"
      },
      "geometry": {
        "type": "Point",
        "coordinates": [
          -119.50848567606057,
          -22.5731060460023
        ]
      }
    }
  ]
}